[{"OBJECT_NAME":"STARLINK-5096","OBJECT_ID":"2022-125AU","EPOCH":"2026-03-09T17:20:20.447232","MEAN_MOTION":15.08853201,"ECCENTRICITY":0.00010612,"INCLINATION":53.2175,"RA_OF_ASC_NODE":213.5472,"ARG_OF_PERICENTER":93.4423,"MEAN_ANOMALY":266.669,"EPHEMERIS_TYPE":0,"CLASSIFICATION_TYPE":"U","NORAD_CAT_ID":54006,"ELEMENT_SET_NO":999,"REV_AT_EPOCH":18946,"BSTAR":0.00024999748,"MEAN_MOTION_DOT":3.695e-5,"MEAN_MOTION_DDOT":0},{"OBJECT_NAME":"ELECTRON KICK STAGE R\/B","OBJECT_ID":"2026-015D","EPOCH":"2026-03-09T15:02:18.646944","MEAN_MOTION":14.71860187,"ECCENTRICITY":0.0516686,"INCLINATION":89.0447,"RA_OF_ASC_NODE":277.927,"ARG_OF_PERICENTER":172.5816,"MEAN_ANOMALY":188.3451,"EPHEMERIS_TYPE":0,"CLASSIFICATION_TYPE":"U","NORAD_CAT_ID":67559,"ELEMENT_SET_NO":999,"REV_AT_EPOCH":678,"BSTAR":0.0016475,"MEAN_MOTION_DOT":0.00103651,"MEAN_MOTION_DDOT":8.2583e-7}]
